{
  "norad_id": 64778,
  "name": "STARLINK-34537",
  "history": [
    {
      "epoch": "2026-03-28T20:29:24.080352Z",
      "apogee_km": 476.13243727608096,
      "perigee_km": 474.2529801367655,
      "latitude_deg": -3.802397831525979e-05,
      "longitude_deg": -2.7643943535155504,
      "height_km": 476.02728373462554,
      "semi_major_axis_km": 6853.329708706423,
      "eccentricity": 0.00013712,
      "inclination_deg": 53.1596,
      "raan_deg": 130.8542,
      "arg_perigee_deg": 86.1357,
      "mean_anomaly_deg": 273.98,
      "mean_motion_rev_day": 15.30207489
    },
    {
      "epoch": "2026-03-29T02:45:36.875232Z",
      "apogee_km": 476.35969319695414,
      "perigee_km": 474.0144856935467,
      "latitude_deg": 6.681115566343734e-06,
      "longitude_deg": -98.28618186247628,
      "height_km": 475.92493462346016,
      "semi_major_axis_km": 6853.32408944525,
      "eccentricity": 0.0001711,
      "inclination_deg": 53.1595,
      "raan_deg": 129.6432,
      "arg_perigee_deg": 82.178,
      "mean_anomaly_deg": 277.9415,
      "mean_motion_rev_day": 15.30209371
    },
    {
      "epoch": "2026-03-30T02:16:24.764448Z",
      "apogee_km": 476.11856952523794,
      "perigee_km": 474.23925323601816,
      "latitude_deg": 1.3713165651919325e-05,
      "longitude_deg": -96.50307148700863,
      "height_km": 476.0856854221533,
      "semi_major_axis_km": 6853.315911380628,
      "eccentricity": 0.00013711,
      "inclination_deg": 53.1594,
      "raan_deg": 125.0915,
      "arg_perigee_deg": 90.5427,
      "mean_anomaly_deg": 269.5731,
      "mean_motion_rev_day": 15.3021211
    },
    {
      "epoch": "2026-03-30T11:40:44.031072Z",
      "apogee_km": 475.90222125950913,
      "perigee_km": 474.5103072425409,
      "latitude_deg": 3.850504860267711e-05,
      "longitude_deg": 120.21100576166847,
      "height_km": 475.7796520703664,
      "semi_major_axis_km": 6853.343264251025,
      "eccentricity": 0.00010155,
      "inclination_deg": 53.1602,
      "raan_deg": 123.2721,
      "arg_perigee_deg": 62.1417,
      "mean_anomaly_deg": 297.9687,
      "mean_motion_rev_day": 15.30202949
    },
    {
      "epoch": "2026-03-30T19:31:00.168960Z",
      "apogee_km": 476.1765708861676,
      "perigee_km": 474.23447068262794,
      "latitude_deg": -5.6208923949933934e-06,
      "longitude_deg": 0.8027443948780123,
      "height_km": 476.11253475634936,
      "semi_major_axis_km": 6853.3425207843975,
      "eccentricity": 0.00014169,
      "inclination_deg": 53.1591,
      "raan_deg": 121.753,
      "arg_perigee_deg": 90.545,
      "mean_anomaly_deg": 269.5713,
      "mean_motion_rev_day": 15.30203198
    },
    {
      "epoch": "2026-03-31T08:03:25.579872Z",
      "apogee_km": 475.9486815998025,
      "perigee_km": 474.4478011819374,
      "latitude_deg": -2.1376959774994348e-06,
      "longitude_deg": 169.7560532815738,
      "height_km": 475.86499880565555,
      "semi_major_axis_km": 6853.33524139087,
      "eccentricity": 0.0001095,
      "inclination_deg": 53.1618,
      "raan_deg": 119.3272,
      "arg_perigee_deg": 72.0057,
      "mean_anomaly_deg": 288.1063,
      "mean_motion_rev_day": 15.30205636
    },
    {
      "epoch": "2026-04-01T20:06:39.191904Z",
      "apogee_km": 476.08554973345235,
      "perigee_km": 474.3064244899979,
      "latitude_deg": 5.8267023266947566e-06,
      "longitude_deg": -19.510231795755907,
      "height_km": 476.16928351529015,
      "semi_major_axis_km": 6853.332987111725,
      "eccentricity": 0.0001298,
      "inclination_deg": 53.1585,
      "raan_deg": 112.3483,
      "arg_perigee_deg": 94.8632,
      "mean_anomaly_deg": 265.2517,
      "mean_motion_rev_day": 15.30206391
    },
    {
      "epoch": "2026-04-02T18:03:23.277600Z",
      "apogee_km": 476.2654691423677,
      "perigee_km": 474.051854643576,
      "latitude_deg": -4.8024285713675395e-05,
      "longitude_deg": 6.156665487082579,
      "height_km": 476.0091610179731,
      "semi_major_axis_km": 6853.295661892972,
      "eccentricity": 0.0001615,
      "inclination_deg": 53.1586,
      "raan_deg": 108.1002,
      "arg_perigee_deg": 87.5682,
      "mean_anomaly_deg": 272.5503,
      "mean_motion_rev_day": 15.30218892
    },
    {
      "epoch": "2026-04-02T18:03:23.279328Z",
      "apogee_km": 476.2656062082815,
      "perigee_km": 474.0517175776631,
      "latitude_deg": -4.9867973505580926e-05,
      "longitude_deg": 6.156656893676689,
      "height_km": 476.00915520250027,
      "semi_major_axis_km": 6853.295661892972,
      "eccentricity": 0.00016152,
      "inclination_deg": 53.1586,
      "raan_deg": 108.1002,
      "arg_perigee_deg": 87.5682,
      "mean_anomaly_deg": 272.5503,
      "mean_motion_rev_day": 15.30218892
    },
    {
      "epoch": "2026-04-03T09:43:55.863552Z",
      "apogee_km": 475.90375348398175,
      "perigee_km": 474.95535694407135,
      "latitude_deg": 1.1892897709563816e-05,
      "longitude_deg": 127.34325659695152,
      "height_km": 476.68597075101076,
      "semi_major_axis_km": 6853.566555214026,
      "eccentricity": 6.919e-05,
      "inclination_deg": 53.1584,
      "raan_deg": 105.0663,
      "arg_perigee_deg": 138.9254,
      "mean_anomaly_deg": 221.1799,
      "mean_motion_rev_day": 15.30128168
    },
    {
      "epoch": "2026-04-04T09:14:45.542976Z",
      "apogee_km": 475.8897664121796,
      "perigee_km": 474.38656903689025,
      "latitude_deg": -5.337963885855764e-07,
      "longitude_deg": 129.11927188156832,
      "height_km": 475.8921917314539,
      "semi_major_axis_km": 6853.275167724534,
      "eccentricity": 0.00010967,
      "inclination_deg": 53.1578,
      "raan_deg": 100.515,
      "arg_perigee_deg": 78.9473,
      "mean_anomaly_deg": 281.1651,
      "mean_motion_rev_day": 15.30225756
    },
    {
      "epoch": "2026-04-05T10:19:35.554368Z",
      "apogee_km": 475.9032595451763,
      "perigee_km": 474.62441494894574,
      "latitude_deg": 1.6560992296942478e-05,
      "longitude_deg": 107.0278805176332,
      "height_km": 475.8009716980634,
      "semi_major_axis_km": 6853.400837247061,
      "eccentricity": 9.33e-05,
      "inclination_deg": 53.1577,
      "raan_deg": 95.662,
      "arg_perigee_deg": 55.5883,
      "mean_anomaly_deg": 304.5206,
      "mean_motion_rev_day": 15.30183667
    },
    {
      "epoch": "2026-04-06T05:08:13.939872Z",
      "apogee_km": 475.8200672240873,
      "perigee_km": 474.5613850539057,
      "latitude_deg": 2.1778285339681984e-05,
      "longitude_deg": -179.54398321052162,
      "height_km": 476.1280331036139,
      "semi_major_axis_km": 6853.327726138997,
      "eccentricity": 9.183e-05,
      "inclination_deg": 53.1576,
      "raan_deg": 92.0226,
      "arg_perigee_deg": 93.5542,
      "mean_anomaly_deg": 266.5564,
      "mean_motion_rev_day": 15.30208153
    }
  ]
}